{
  "type": "FeatureCollection",
  "features": [
    {
      "type": "Feature",
      "properties": {
        "norad_id": 2807,
        "name": "OPS 7218 (TRANSIT 16)",
        "group": "nnss",
        "lat": -50.61935780390183,
        "lon": 174.4917623241288,
        "alt_km": 1082.199283919851,
        "timestamp": "2025-12-10T09:57:44.967761+00:00",
        "meta_object_name": "OPS 7218 (TRANSIT 16)",
        "meta_object_id": "1967-048A",
        "meta_epoch": "2025-12-10T02:01:26.379840",
        "meta_mean_motion": 13.50721446,
        "meta_eccentricity": 0.0021846,
        "meta_inclination": 89.6732,
        "meta_ra_of_asc_node": 354.1043,
        "meta_arg_of_pericenter": 121.1834,
        "meta_mean_anomaly": 301.676,
        "meta_ephemeris_type": 0,
        "meta_classification_type": "U",
        "meta_norad_cat_id": 2807,
        "meta_element_set_no": 999,
        "meta_rev_at_epoch": 88240,
        "meta_bstar": 0.00019664,
        "meta_mean_motion_dot": 1.37e-06,
        "meta_mean_motion_ddot": 0,
        "tle_line1": "1 02807U 67048A   25344.08433310  .00000137  00000+0  19664-3 0  9991",
        "tle_line2": "2 02807  89.6732 354.1043 0021846 121.1834 301.6760 13.50721446882403"
      },
      "geometry": {
        "type": "Point",
        "coordinates": [
          174.4917623241288,
          -50.61935780390183
        ]
      }
    },
    {
      "type": "Feature",
      "properties": {
        "norad_id": 2965,
        "name": "OPS 4947 (TRANSIT 17)",
        "group": "nnss",
        "lat": -87.64731890751095,
        "lon": 6.016629122814742,
        "alt_km": 1037.5852789515238,
        "timestamp": "2025-12-10T09:57:44.967783+00:00",
        "meta_object_name": "OPS 4947 (TRANSIT 17)",
        "meta_object_id": "1967-092A",
        "meta_epoch": "2025-12-10T03:35:49.999200",
        "meta_mean_motion": 13.5345247,
        "meta_eccentricity": 0.0046041,
        "meta_inclination": 89.2498,
        "meta_ra_of_asc_node": 24.6332,
        "meta_arg_of_pericenter": 242.2755,
        "meta_mean_anomaly": 178.1976,
        "meta_ephemeris_type": 0,
        "meta_classification_type": "U",
        "meta_norad_cat_id": 2965,
        "meta_element_set_no": 999,
        "meta_rev_at_epoch": 87062,
        "meta_bstar": 0.00022488,
        "meta_mean_motion_dot": 1.63e-06,
        "meta_mean_motion_ddot": 0,
        "tle_line1": "1 02965U 67092A   25344.14988425  .00000163  00000+0  22488-3 0  9991",
        "tle_line2": "2 02965  89.2498  24.6332 0046041 242.2755 178.1976 13.53452470870622"
      },
      "geometry": {
        "type": "Point",
        "coordinates": [
          6.016629122814742,
          -87.64731890751095
        ]
      }
    },
    {
      "type": "Feature",
      "properties": {
        "norad_id": 3133,
        "name": "OPS 7034 (TRANSIT 18)",
        "group": "nnss",
        "lat": 76.07736843842638,
        "lon": -86.47922294861398,
        "alt_km": 1068.3306027373837,
        "timestamp": "2025-12-10T09:57:44.967797+00:00",
        "meta_object_name": "OPS 7034 (TRANSIT 18)",
        "meta_object_id": "1968-012A",
        "meta_epoch": "2025-12-09T19:29:54.021984",
        "meta_mean_motion": 13.51564681,
        "meta_eccentricity": 0.0073569,
        "meta_inclination": 90.0276,
        "meta_ra_of_asc_node": 273.6305,
        "meta_arg_of_pericenter": 177.6268,
        "meta_mean_anomaly": 208.6684,
        "meta_ephemeris_type": 0,
        "meta_classification_type": "U",
        "meta_norad_cat_id": 3133,
        "meta_element_set_no": 999,
        "meta_rev_at_epoch": 56879,
        "meta_bstar": 0.00027275,
        "meta_mean_motion_dot": 1.9e-06,
        "meta_mean_motion_ddot": 0,
        "tle_line1": "1 03133U 68012A   25343.81243081  .00000190  00000+0  27275-3 0  9996",
        "tle_line2": "2 03133  90.0276 273.6305 0073569 177.6268 208.6684 13.51564681568798"
      },
      "geometry": {
        "type": "Point",
        "coordinates": [
          -86.47922294861398,
          76.07736843842638
        ]
      }
    },
    {
      "type": "Feature",
      "properties": {
        "norad_id": 4507,
        "name": "NNSS 19 (TRANSIT 19)",
        "group": "nnss",
        "lat": 52.25276780545895,
        "lon": -125.4750638132194,
        "alt_km": 1108.6500037798414,
        "timestamp": "2025-12-10T09:57:44.967809+00:00",
        "meta_object_name": "NNSS 19 (TRANSIT 19)",
        "meta_object_id": "1970-067A",
        "meta_epoch": "2025-12-10T02:35:49.672320",
        "meta_mean_motion": 13.51314137,
        "meta_eccentricity": 0.0170704,
        "meta_inclination": 90.0056,
        "meta_ra_of_asc_node": 234.532,
        "meta_arg_of_pericenter": 301.0696,
        "meta_mean_anomaly": 57.3796,
        "meta_ephemeris_type": 0,
        "meta_classification_type": "U",
        "meta_norad_cat_id": 4507,
        "meta_element_set_no": 999,
        "meta_rev_at_epoch": 72186,
        "meta_bstar": 0.00026826,
        "meta_mean_motion_dot": 1.98e-06,
        "meta_mean_motion_ddot": 0,
        "tle_line1": "1 04507U 70067A   25344.10821380  .00000198  00000+0  26826-3 0  9991",
        "tle_line2": "2 04507  90.0056 234.5320 0170704 301.0696  57.3796 13.51314137721861"
      },
      "geometry": {
        "type": "Point",
        "coordinates": [
          -125.4750638132194,
          52.25276780545895
        ]
      }
    },
    {
      "type": "Feature",
      "properties": {
        "norad_id": 6909,
        "name": "NNSS 20 (TRANSIT 20)",
        "group": "nnss",
        "lat": -46.41784566086999,
        "lon": -105.06223910913907,
        "alt_km": 1076.807917604,
        "timestamp": "2025-12-10T09:57:44.967820+00:00",
        "meta_object_name": "NNSS 20 (TRANSIT 20)",
        "meta_object_id": "1973-081A",
        "meta_epoch": "2025-12-10T03:11:10.667040",
        "meta_mean_motion": 13.71432293,
        "meta_eccentricity": 0.0156619,
        "meta_inclination": 89.8562,
        "meta_ra_of_asc_node": 255.0932,
        "meta_arg_of_pericenter": 86.0337,
        "meta_mean_anomaly": 275.8713,
        "meta_ephemeris_type": 0,
        "meta_classification_type": "U",
        "meta_norad_cat_id": 6909,
        "meta_element_set_no": 999,
        "meta_rev_at_epoch": 80325,
        "meta_bstar": 0.00032541,
        "meta_mean_motion_dot": 3.31e-06,
        "meta_mean_motion_ddot": 0,
        "tle_line1": "1 06909U 73081A   25344.13276235  .00000331  00000+0  32541-3 0  9994",
        "tle_line2": "2 06909  89.8562 255.0932 0156619  86.0337 275.8713 13.71432293803251"
      },
      "geometry": {
        "type": "Point",
        "coordinates": [
          -105.06223910913907,
          -46.41784566086999
        ]
      }
    },
    {
      "type": "Feature",
      "properties": {
        "norad_id": 10457,
        "name": "TRANSAT",
        "group": "nnss",
        "lat": 75.01754251497034,
        "lon": 79.99516709315081,
        "alt_km": 1078.8131864167626,
        "timestamp": "2025-12-10T09:57:44.967831+00:00",
        "meta_object_name": "TRANSAT",
        "meta_object_id": "1977-106A",
        "meta_epoch": "2025-12-10T04:33:45.230112",
        "meta_mean_motion": 13.48943035,
        "meta_eccentricity": 0.002515,
        "meta_inclination": 89.6481,
        "meta_ra_of_asc_node": 78.6873,
        "meta_arg_of_pericenter": 196.9393,
        "meta_mean_anomaly": 226.3757,
        "meta_ephemeris_type": 0,
        "meta_classification_type": "U",
        "meta_norad_cat_id": 10457,
        "meta_element_set_no": 999,
        "meta_rev_at_epoch": 36709,
        "meta_bstar": 0.00019145,
        "meta_mean_motion_dot": 1.3e-06,
        "meta_mean_motion_ddot": 0,
        "tle_line1": "1 10457U 77106A   25344.19010683  .00000130  00000+0  19145-3 0  9990",
        "tle_line2": "2 10457  89.6481  78.6873 0025150 196.9393 226.3757 13.48943035367094"
      },
      "geometry": {
        "type": "Point",
        "coordinates": [
          79.99516709315081,
          75.01754251497034
        ]
      }
    },
    {
      "type": "Feature",
      "properties": {
        "norad_id": 12458,
        "name": "NOVA 1",
        "group": "nnss",
        "lat": -11.610122201985087,
        "lon": -88.55166876978325,
        "alt_km": 1174.847228750251,
        "timestamp": "2025-12-10T09:57:44.967842+00:00",
        "meta_object_name": "NOVA 1",
        "meta_object_id": "1981-044A",
        "meta_epoch": "2025-12-09T17:32:56.257152",
        "meta_mean_motion": 13.23278034,
        "meta_eccentricity": 0.0015825,
        "meta_inclination": 89.8524,
        "meta_ra_of_asc_node": 91.4277,
        "meta_arg_of_pericenter": 111.3717,
        "meta_mean_anomaly": 63.8823,
        "meta_ephemeris_type": 0,
        "meta_classification_type": "U",
        "meta_norad_cat_id": 12458,
        "meta_element_set_no": 999,
        "meta_rev_at_epoch": 15146,
        "meta_bstar": 0.00021671,
        "meta_mean_motion_dot": 1.01e-06,
        "meta_mean_motion_ddot": 0,
        "tle_line1": "1 12458U 81044A   25343.73120668  .00000101  00000+0  21671-3 0  9998",
        "tle_line2": "2 12458  89.8524  91.4277 0015825 111.3717  63.8823 13.23278034151460"
      },
      "geometry": {
        "type": "Point",
        "coordinates": [
          -88.55166876978325,
          -11.610122201985087
        ]
      }
    }
  ]
}